GSAT0221 (GALILEO 25)   
1 43564U 18060A   22031.79369714 -.00000074  00000+0  00000+0 0  9991
2 43564  57.1233  24.8845 0005752 282.6842  77.2586  1.70475645 21936
GSAT0222 (GALILEO 26)   
1 43565U 18060B   22032.01353640 -.00000075  00000+0  00000+0 0  9990
2 43565  57.1257  24.8788 0005462 289.6119  70.3352  1.70475640 21986
GSAT0219 (GALILEO 23)   
1 43566U 18060C   22032.23411236 -.00000076  00000+0  00000+0 0  9992
2 43566  57.1260  24.8747 0005117 290.4379  69.5123  1.70475663 21960
GSAT0220 (GALILEO 24)   
1 43567U 18060D   22031.86755608 -.00000074  00000+0  00000+0 0  9993
2 43567  57.1258  24.8847 0005169 286.6380  73.3120  1.70475458 21945
BEIDOU-3 M13            
1 43622U 18072A   22032.65626780 -.00000019  00000+0  00000+0 0  9993
2 43622  55.4019 115.9197 0006371 276.6829  95.0759  1.86231434 22925
BEIDOU-3 M14            
1 43623U 18072B   22032.71153396 -.00000019  00000+0  00000+0 0  9999
2 43623  55.4028 115.9093 0004261 299.5425 199.4989  1.86231271 22926
GPS BIII-1              
1 43873U 18109A   22032.66294770 -.00000007  00000+0  00000+0 0  9990
2 43873  55.0666 155.2539 0017157 191.2259 242.0339  2.00565233 23054
METEOR-M2 2             
1 44387U 19038A   22033.42705967 -.00000011  00000+0  14460-4 0  9998
2 44387  98.7039 355.4264 0000973   6.2385 353.8808 14.23698174134194
GPS BIII-2              
1 44506U 19056A   22032.69216119 -.00000071  00000+0  00000+0 0  9991
2 44506  55.6143  34.4502 0021048 184.3016 172.7449  2.00569471 18042
BEIDOU-3 M23            
1 44542U 19061A   22032.88499057  .00000048  00000+0  00000+0 0  9995
2 44542  54.6261 236.7177 0008662 353.8294   6.1960  1.86231404 16068
BEIDOU-3 M24            
1 44543U 19061B   22031.43959557  .00000071  00000+0  00000+0 0  9998
2 44543  54.6240 236.7372 0005882 350.6723  31.4050  1.86231830 16037
BEIDOU-3 M21            
1 44793U 19078A   22032.72622906 -.00000103  00000+0  10000-3 0  9993
2 44793  55.0138 355.2890 0006970 357.2028   1.1844  1.86232212 14912
BEIDOU-3 M22            
1 44794U 19078B   22032.89511769 -.00000103  00000+0  00000+0 0  9991
2 44794  54.9883 355.2771 0004961 349.8863  33.1384  1.86232741 14920
ELEKTRO-L 3             
1 44903U 19095A   22033.46596611 -.00000109  00000+0  00000+0 0  9991
2 44903   0.0491 107.1485 0001044 203.8473  65.3827  1.00271654  7710
GPS BIII-3              
1 45854U 20041A   22032.68812664 -.00000023  00000+0  00000+0 0  9997
2 45854  55.4196  91.7212 0019490 175.5178 118.4092  2.00560319 12012
GPS BIII-4              
1 46826U 20078A   22032.70292403  .00000011  00000+0  00000+0 0  9999
2 46826  54.6576 275.6026 0013670 183.1344  93.2380  2.00566407  9486
GSAT0223 (GALILEO 27)   
1 49809U 21116A   22026.12353715 -.00000052  00000+0  00000+0 0  9996
2 49809  57.0859  24.9693 0024526 101.5816 321.3817  1.68581145    15
GSAT0224 (GALILEO 28)   
1 49810U 21116B   22031.82765971 -.00000074  00000+0  00000+0 0  9996
2 49810  57.1196  24.7828 0002096 258.9822 278.8965  1.70475553   975
